{
  "type": "FeatureCollection",
  "features": [
    {
      "type": "Feature",
      "properties": {
        "name": "G.D. Naidu Flyover",
        "description": "Goldwins - Nava India - Uppilipalayam corridor"
      },
      "geometry": {
        "type": "LineString",
        "coordinates": [
          [77.045083, 11.043222],
          [77.039500, 11.037600],
          [77.033800, 11.032000],
          [77.028000, 11.026500],
          [77.022000, 11.021000],
          [77.016000, 11.018000],
          [77.010000, 11.016000],
          [77.004500, 11.015000],
          [76.999000, 11.013000],
          [76.993389, 11.020806],
          [76.989000, 11.016000],
          [76.985000, 11.012000],
          [76.981000, 11.008000],
          [76.977000, 11.005000],
          [76.973500, 11.003500],
          [76.969722, 11.002861]
        ]
      }
    }
  ]
}
